{
  "norad_id": 45679,
  "name": "STARLINK-1394",
  "history": [
    {
      "epoch": "2026-03-28T21:03:14.374944",
      "apogee_km": 410.4141128480478,
      "perigee_km": 405.26613488234034,
      "latitude_deg": 51.37451259871274,
      "longitude_deg": -87.88402784010395,
      "semi_major_axis_km": 6785.977123865194,
      "eccentricity": 0.00037931,
      "inclination_deg": 53.048,
      "raan_deg": 304.2795,
      "arg_perigee_deg": 211.5701,
      "mean_anomaly_deg": 148.5081,
      "mean_motion_rev_day": 15.53045484
    },
    {
      "epoch": "2026-03-29T01:41:14.281152",
      "apogee_km": 410.2864953713961,
      "perigee_km": 405.159099708374,
      "latitude_deg": -50.60680373586512,
      "longitude_deg": -69.35079872002825,
      "semi_major_axis_km": 6785.859797539884,
      "eccentricity": 0.0003778,
      "inclination_deg": 53.0483,
      "raan_deg": 303.3489,
      "arg_perigee_deg": 212.2235,
      "mean_anomaly_deg": 147.8544,
      "mean_motion_rev_day": 15.53085762
    }
  ]
}